NORAD_CAT_ID,OBJECT_NAME,OBJECT_TYPE,EPOCH,MEAN_MOTION,ECCENTRICITY,INCLINATION,RA_OF_ASC_NODE,ARG_OF_PERICENTER,MEAN_ANOMALY,BSTAR,MEAN_MOTION_DOT,MEAN_MOTION_DDOT,TLE_LINE0,TLE_LINE1,TLE_LINE2,SEMIMAJOR_AXIS,PERIOD,APOGEE,PERIGEE,DECAYED
53703.0,STARLINK-4731,PAYLOAD,2023-06-11 18:49:31,15.08842341,0.0001146,53.2174,61.602,90.018,270.0944,0.00011851,1.599e-05,0.0,0 STARLINK-4731,1 53703U 22107D   23162.78438983  .00001599  00000-0  11851-3 0  9997,2 53703  53.2174  61.6020 0001146  90.0180 270.0944 15.08842341 43602,6917.873,95.437,540.531,538.945,0.0
53703.0,STARLINK-4731,PAYLOAD,2023-06-11 23:35:40,15.08845431,0.0001112,53.2176,60.7096,92.3867,267.7252,0.00013927,1.93e-05,0.0,0 STARLINK-4731,1 53703U 22107D   23162.98310687  .00001930  00000-0  13927-3 0  9994,2 53703  53.2176  60.7096 0001112  92.3867 267.7252 15.08845431 42884,6917.864,95.437,540.498,538.96,0.0
53703.0,STARLINK-4731,PAYLOAD,2023-06-12 10:43:22,15.0884269,0.0001138,53.2177,58.6276,93.838,266.2743,1.8223e-05,2e-08,0.0,0 STARLINK-4731,1 53703U 22107D   23163.44679086  .00000002  00000-0  18223-4 0  9991,2 53703  53.2177  58.6276 0001138  93.8380 266.2743 15.08842690 43700,6917.872,95.437,540.524,538.95,0.0
53703.0,STARLINK-4731,PAYLOAD,2023-06-12 20:15:42,15.08816339,9.85e-05,53.2175,56.8435,99.7889,260.3215,0.00031567,4.736e-05,0.0,0 STARLINK-4731,1 53703U 22107D   23163.84424062  .00004736  00000-0  31567-3 0  9990,2 53703  53.2175  56.8435 0000985  99.7889 260.3215 15.08816339 43769,6917.953,95.439,540.499,539.136,0.0
53703.0,STARLINK-4731,PAYLOAD,2023-06-12 23:26:27,15.08840136,0.0001213,53.2176,56.2491,90.8542,269.2589,7.7083e-05,9.39e-06,0.0,0 STARLINK-4731,1 53703U 22107D   23163.97671112  .00000939  00000-0  77083-4 0  9999,2 53703  53.2176  56.2491 0001213  90.8542 269.2589 15.08840136 43785,6917.88,95.438,540.584,538.906,0.0
53703.0,STARLINK-4731,PAYLOAD,2023-06-14 00:52:37,15.08844007,9.78e-05,53.2169,51.4939,88.121,271.9894,2.7526e-05,1.5e-06,0.0,0 STARLINK-4731,1 53703U 22107D   23165.03654947  .00000150  00000-0  27526-4 0  9997,2 53703  53.2169  51.4939 0000978  88.1210 271.9894 15.08844007 43195,6917.868,95.437,540.41,539.057,0.0
53703.0,STARLINK-4731,PAYLOAD,2023-06-14 02:28:00,15.08845384,9.75e-05,53.2171,51.1952,85.2196,274.8907,3.2968e-05,2.37e-06,0.0,0 STARLINK-4731,1 53703U 22107D   23165.10278836  .00000237  00000-0  32968-4 0  9996,2 53703  53.2171  51.1952 0000975  85.2196 274.8907 15.08845384 43958,6917.864,95.437,540.403,539.054,0.0
53703.0,STARLINK-4731,PAYLOAD,2023-06-14 23:08:02,15.08821013,8.62e-05,53.2172,47.329,88.5447,271.5644,0.00018025,2.581e-05,0.0,0 STARLINK-4731,1 53703U 22107D   23165.96392193  .00002581  00000-0  18025-3 0  9994,2 53703  53.2172  47.3290 0000862  88.5447 271.5644 15.08821013 43338,6917.938,95.439,540.4,539.207,0.0
53703.0,STARLINK-4731,PAYLOAD,2023-06-16 02:09:35,15.08843957,9.94e-05,53.2179,42.2727,76.9623,283.148,5.9685e-05,6.62e-06,0.0,0 STARLINK-4731,1 53703U 22107D   23167.08999230  .00000662  00000-0  59685-4 0  9990,2 53703  53.2179  42.2727 0000994  76.9623 283.1480 15.08843957 43504,6917.868,95.437,540.421,539.046,0.0
53703.0,STARLINK-4731,PAYLOAD,2023-06-16 08:31:07,15.0884289,9.2e-05,53.217,41.083,79.9973,280.1123,3.7772e-05,3.14e-06,0.0,0 STARLINK-4731,1 53703U 22107D   23167.35495323  .00000314  00000-0  37772-4 0  9991,2 53703  53.2170  41.0830 0000920  79.9973 280.1123 15.08842890 44290,6917.872,95.437,540.373,539.1,0.0
53703.0,STARLINK-4731,PAYLOAD,2023-06-17 00:24:58,15.08845135,9.93e-05,53.2172,38.1096,87.8152,272.2954,0.00032563,4.899e-05,0.0,0 STARLINK-4731,1 53703U 22107D   23168.01734156  .00004899  00000-0  32563-3 0  9999,2 53703  53.2172  38.1096 0000993  87.8152 272.2954 15.08845135 43647,6917.865,95.437,540.417,539.043,0.0
53703.0,STARLINK-4731,PAYLOAD,2023-06-17 08:21:54,15.08839495,7.2e-05,53.2169,36.6226,71.6843,288.4227,7.6806e-05,9.35e-06,0.0,0 STARLINK-4731,1 53703U 22107D   23168.34855149  .00000935  00000-0  76806-4 0  9997,2 53703  53.2169  36.6226 0000720  71.6843 288.4227 15.08839495 43696,6917.882,95.438,540.245,539.249,0.0
53703.0,STARLINK-4731,PAYLOAD,2023-06-18 00:15:47,15.08827242,0.0001532,53.2173,33.6505,69.5639,290.5517,-4.6816e-05,-1.033e-05,0.0,0 STARLINK-4731,1 53703U 22107D   23169.01097182 -.00001033  00000-0 -46816-4 0  9997,2 53703  53.2173  33.6505 0001532  69.5639 290.5517 15.08827242 43793,6917.919,95.438,540.844,538.725,0.0
53703.0,STARLINK-4731,PAYLOAD,2023-06-18 08:12:43,15.08832988,7.76e-05,53.2175,32.1617,88.9236,271.1845,-2.8281e-05,-7.38e-06,0.0,0 STARLINK-4731,1 53703U 22107D   23169.34216633 -.00000738  00000-0 -28281-4 0  9994,2 53703  53.2175  32.1617 0000776  88.9236 271.1845 15.08832988 43848,6917.902,95.438,540.304,539.23,0.0
53703.0,STARLINK-4731,PAYLOAD,2023-06-18 20:55:47,15.08843563,7.37e-05,53.2179,29.7826,83.4048,276.7028,4.1982e-05,3.81e-06,0.0,0 STARLINK-4731,1 53703U 22107D   23169.87207847  .00000381  00000-0  41982-4 0  9994,2 53703  53.2179  29.7826 0000737  83.4048 276.7028 15.08843563 44671,6917.869,95.437,540.244,539.225,0.0
53703.0,STARLINK-4731,PAYLOAD,2023-06-19 00:06:33,15.08851791,9.35e-05,53.2186,29.188,94.4643,265.6456,2.9457e-05,1.81e-06,0.0,0 STARLINK-4731,1 53703U 22107D   23170.00455364  .00000181  00000-0  29457-4 0  9991,2 53703  53.2186  29.1880 0000935  94.4643 265.6456 15.08851791 43949,6917.844,95.437,540.356,539.063,0.0
53703.0,STARLINK-4731,PAYLOAD,2023-06-19 08:03:29,15.08849561,8.93e-05,53.2181,27.7021,95.8531,264.2563,4.273e-05,3.93e-06,0.0,0 STARLINK-4731,1 53703U 22107D   23170.33575385  .00000393  00000-0  42730-4 0  9997,2 53703  53.2181  27.7021 0000893  95.8531 264.2563 15.08849561 44744,6917.851,95.437,540.334,539.098,0.0
53703.0,STARLINK-4731,PAYLOAD,2023-06-19 20:46:34,15.08841354,9.24e-05,53.2181,25.3231,75.0071,285.1024,0.00027996,4.171e-05,0.0,0 STARLINK-4731,1 53703U 22107D   23170.86567688  .00004171  00000-0  27996-3 0  9996,2 53703  53.2181  25.3231 0000924  75.0071 285.1024 15.08841354 44820,6917.876,95.437,540.38,539.102,0.0
53703.0,STARLINK-4731,PAYLOAD,2023-06-19 22:21:57,15.08846585,9.52e-05,53.2172,25.0263,71.4391,288.6705,0.00034288,5.174e-05,0.0,0 STARLINK-4731,1 53703U 22107D   23170.93191951  .00005174  00000-0  34288-3 0  9996,2 53703  53.2172  25.0263 0000952  71.4391 288.6705 15.08846585 44081,6917.86,95.437,540.384,539.067,0.0
53703.0,STARLINK-4731,PAYLOAD,2023-06-20 07:54:16,15.08845841,9.76e-05,53.2171,23.2425,68.0698,292.0398,0.00024463,3.608e-05,0.0,0 STARLINK-4731,1 53703U 22107D   23171.32935944  .00003608  00000-0  24463-3 0  9992,2 53703  53.2171  23.2425 0000976  68.0698 292.0398 15.08845841 44898,6917.863,95.437,540.403,539.052,0.0
53703.0,STARLINK-4731,PAYLOAD,2023-06-20 17:26:35,15.0884374,0.000103,53.2162,21.4559,110.1481,249.9622,6.1645e-05,6.94e-06,0.0,0 STARLINK-4731,1 53703U 22107D   23171.72679911  .00000694  00000-0  61645-4 0  9991,2 53703  53.2162  21.4559 0001030 110.1481 249.9622 15.08843740 44209,6917.869,95.437,540.446,539.021,0.0
53703.0,STARLINK-4731,PAYLOAD,2023-06-20 20:37:21,15.08843781,0.0001007,53.2175,20.8627,93.4365,266.6742,-5.1773e-06,-3.7e-06,0.0,0 STARLINK-4731,1 53703U 22107D   23171.85927942 -.00000370  00000-0 -51773-5 0  9990,2 53703  53.2175  20.8627 0001007  93.4365 266.6742 15.08843781 44978,6917.869,95.437,540.43,539.037,0.0
53703.0,STARLINK-4731,PAYLOAD,2023-06-20 23:48:07,15.08845378,0.0001037,53.2173,20.2665,111.0192,249.0911,3.7463e-05,3.09e-06,0.0,0 STARLINK-4731,1 53703U 22107D   23171.99175750  .00000309  00000-0  37463-4 0  9996,2 53703  53.2173  20.2665 0001037 111.0192 249.0911 15.08845378 44999,6917.864,95.437,540.446,539.012,0.0
53703.0,STARLINK-4731,PAYLOAD,2023-06-21 20:28:08,15.08847676,8.77e-05,53.2177,16.4034,84.8772,275.2321,-1.3818e-05,-5.08e-06,0.0,0 STARLINK-4731,1 53703U 22107D   23172.85287836 -.00000508  00000-0 -13818-4 0  9992,2 53703  53.2177  16.4034 0000877  84.8772 275.2321 15.08847676 45127,6917.857,95.437,540.329,539.115,0.0
53703.0,STARLINK-4731,PAYLOAD,2023-06-21 23:38:54,15.08851257,8.86e-05,53.2176,15.8087,84.5966,275.5127,-1.1294e-05,-4.68e-06,0.0,0 STARLINK-4731,1 53703U 22107D   23172.98535532 -.00000468  00000-0 -11294-4 0  9996,2 53703  53.2176  15.8087 0000886  84.5966 275.5127 15.08851257 44394,6917.846,95.437,540.324,539.098,0.0
53703.0,STARLINK-4731,PAYLOAD,2023-06-22 06:00:27,15.08841532,9.31e-05,53.2183,14.6166,86.0866,274.0232,-3.1157e-05,-7.84e-06,0.0,0 STARLINK-4731,1 53703U 22107D   23173.25032165 -.00000784  00000-0 -31157-4 0  9992,2 53703  53.2183  14.6166 0000931  86.0866 274.0232 15.08841532 44435,6917.876,95.437,540.385,539.097,0.0
53703.0,STARLINK-4731,PAYLOAD,2023-06-23 18:34:20,15.08836577,9.11e-05,53.2167,7.7799,95.3089,264.8007,6.9822e-06,-1.77e-06,0.0,0 STARLINK-4731,1 53703U 22107D   23174.77384534 -.00000177  00000-0  69822-5 0  9996,2 53703  53.2167   7.7799 0000911  95.3089 264.8007 15.08836577 44665,6917.891,95.438,540.386,539.126,0.0
53703.0,STARLINK-4731,PAYLOAD,2023-06-24 23:11:16,15.08849834,0.0001074,53.2185,2.4266,81.0576,279.0538,0.00020193,2.928e-05,0.0,0 STARLINK-4731,1 53703U 22107D   23175.96616109  .00002928  00000-0  20193-3 0  9995,2 53703  53.2185   2.4266 0001074  81.0576 279.0538 15.08849834 44847,6917.85,95.437,540.458,538.972,0.0
53703.0,STARLINK-4731,PAYLOAD,2023-06-25 05:32:49,15.08837538,9.29e-05,53.2179,1.238,92.1733,267.9365,-8.7011e-06,-4.26e-06,0.0,0 STARLINK-4731,1 53703U 22107D   23176.23112687 -.00000426  00000-0 -87011-5 0  9995,2 53703  53.2179   1.2380 0000929  92.1733 267.9365 15.08837538 44886,6917.888,95.438,540.396,539.11,0.0
53703.0,STARLINK-4731,PAYLOAD,2023-06-25 21:26:40,15.08846853,9.85e-05,53.2178,358.2643,87.7563,272.3542,0.00018743,2.697e-05,0.0,0 STARLINK-4731,1 53703U 22107D   23176.89352436  .00002697  00000-0  18743-3 0  9999,2 53703  53.2178 358.2643 0000985  87.7563 272.3542 15.08846853 44983,6917.859,95.437,540.406,539.043,0.0
